{
    "links": {
        "self": "http://www.neowsapp.com/rest/v1/neo/3079905?api_key=iIulBulltgU6a56xZRHN4H3l9WmuAYTsLGpBGhQ2"
    },
    "id": "3079905",
    "neo_reference_id": "3079905",
    "name": "(2001 MD1)",
    "designation": "2001 MD1",
    "nasa_jpl_url": "http://ssd.jpl.nasa.gov/sbdb.cgi?sstr=3079905",
    "absolute_magnitude_h": 21.4,
    "estimated_diameter": {
        "kilometers": {
            "estimated_diameter_min": 0.1394938229,
            "estimated_diameter_max": 0.3119176705
        },
        "meters": {
            "estimated_diameter_min": 139.4938229344,
            "estimated_diameter_max": 311.9176705226
        },
        "miles": {
            "estimated_diameter_min": 0.0866774163,
            "estimated_diameter_max": 0.1938165949
        },
        "feet": {
            "estimated_diameter_min": 457.6569140361,
            "estimated_diameter_max": 1023.3519701574
        }
    },
    "is_potentially_hazardous_asteroid": false,
    "close_approach_data": [
        {
            "close_approach_date": "1998-06-03",
            "close_approach_date_full": "1998-Jun-03 08:37",
            "epoch_date_close_approach": 896863020000,
            "relative_velocity": {
                "kilometers_per_second": "14.5755387776",
                "kilometers_per_hour": "52471.9395993827",
                "miles_per_hour": "32604.0226916275"
            },
            "miss_distance": {
                "astronomical": "0.290363914",
                "lunar": "112.951562546",
                "kilometers": "43437823.05926318",
                "miles": "26991011.659184684"
            },
            "orbiting_body": "Earth"
        },
        {
            "close_approach_date": "2001-07-08",
            "close_approach_date_full": "2001-Jul-08 08:58",
            "epoch_date_close_approach": 994582680000,
            "relative_velocity": {
                "kilometers_per_second": "6.817568046",
                "kilometers_per_hour": "24543.2449655574",
                "miles_per_hour": "15250.217962071"
            },
            "miss_distance": {
                "astronomical": "0.0614805628",
                "lunar": "23.9159389292",
                "kilometers": "9197361.241281236",
                "miles": "5714975.2684076168"
            },
            "orbiting_body": "Earth"
        },
        {
            "close_approach_date": "2004-08-25",
            "close_approach_date_full": "2004-Aug-25 13:01",
            "epoch_date_close_approach": 1093438860000,
            "relative_velocity": {
                "kilometers_per_second": "14.9932243404",
                "kilometers_per_hour": "53975.6076252704",
                "miles_per_hour": "33538.3435269354"
            },
            "miss_distance": {
                "astronomical": "0.3371006229",
                "lunar": "131.1321423081",
                "kilometers": "50429535.161513223",
                "miles": "31335460.1047715574"
            },
            "orbiting_body": "Earth"
        },
        {
            "close_approach_date": "2050-05-22",
            "close_approach_date_full": "2050-May-22 19:34",
            "epoch_date_close_approach": 2536860840000,
            "relative_velocity": {
                "kilometers_per_second": "20.386742956",
                "kilometers_per_hour": "73392.2746415064",
                "miles_per_hour": "45603.1053182182"
            },
            "miss_distance": {
                "astronomical": "0.4919833407",
                "lunar": "191.3815195323",
                "kilometers": "73599659.844204309",
                "miles": "45732707.9733411042"
            },
            "orbiting_body": "Earth"
        },
        {
            "close_approach_date": "2059-09-03",
            "close_approach_date_full": "2059-Sep-03 04:40",
            "epoch_date_close_approach": 2829789600000,
            "relative_velocity": {
                "kilometers_per_second": "18.3378594778",
                "kilometers_per_hour": "66016.2941201826",
                "miles_per_hour": "41019.9578659546"
            },
            "miss_distance": {
                "astronomical": "0.4445480673",
                "lunar": "172.9291981797",
                "kilometers": "66503443.980696651",
                "miles": "41323323.9016137438"
            },
            "orbiting_body": "Earth"
        }
    ],
    "orbital_data": {
        "orbit_id": "28",
        "orbit_determination_date": "2017-04-06 09:16:19",
        "first_observation_date": "2001-06-16",
        "last_observation_date": "2001-08-23",
        "data_arc_in_days": 68,
        "observations_used": 107,
        "orbit_uncertainty": "6",
        "minimum_orbit_intersection": ".0654804",
        "jupiter_tisserand_invariant": "3.571",
        "epoch_osculation": "2459000.5",
        "eccentricity": ".4929815157317193",
        "semi_major_axis": "2.106827702419046",
        "inclination": "5.861324970564441",
        "ascending_node_longitude": "265.7548380152822",
        "orbital_period": "1116.971153130114",
        "perihelion_distance": "1.068200588294929",
        "perihelion_argument": "27.50205581425391",
        "aphelion_distance": "3.145454816543163",
        "perihelion_time": "2458805.769455566179",
        "mean_anomaly": "62.76168887596108",
        "mean_motion": ".3223001766797322",
        "equinox": "J2000",
        "orbit_class": {
            "orbit_class_type": "AMO",
            "orbit_class_description": "Near-Earth asteroid orbits similar to that of 1221 Amor",
            "orbit_class_range": "1.017 AU < q (perihelion) < 1.3 AU"
        }
    },
    "is_sentry_object": false
}